GLOBALSTAR M084         
1 38040U 11080A   24172.91734521 -.00000095  00000+0  50948-4 0  9997
2 38040  52.0019  68.3097 0000789  42.2495  38.4889 12.62263599577045
GLOBALSTAR M080         
1 38041U 11080B   24172.96754234 -.00000102  00000+0  73562-5 0  9993
2 38041  52.0072  69.6358 0000678  21.2384  48.2048 12.62261812577312
GLOBALSTAR M082         
1 38042U 11080C   24173.00194005 -.00000090  00000+0  78354-4 0  9993
2 38042  52.0095  24.9414 0001367  95.6051  69.3214 12.62270462578059
GLOBALSTAR M092         
1 38043U 11080D   24172.94549211 -.00000124  00000+0 -11128-3 0  9993
2 38043  52.0075 115.4678 0000576  37.9463 351.2951 12.62262865576544
GLOBALSTAR M090         
1 38044U 11080E   24172.84985569 -.00000085  00000+0  10754-3 0  9992
2 38044  51.9903  19.6784 0001051  94.8721 338.6623 12.62264257577985
GLOBALSTAR M086         
1 38045U 11080F   24172.95993624 -.00000083  00000+0  11474-3 0  9994
2 38045  51.9917  19.8649 0000398 168.4802 286.3743 12.62263525578041
GLOBALSTAR M097         
1 39072U 13005A   24172.64934390 -.00000105  00000+0 -43892-5 0  9992
2 39072  52.0059 294.9952 0000835 136.1769 223.9164 12.62263782525157
GLOBALSTAR M093         
1 39073U 13005B   24172.86028093 -.00000096  00000+0  41367-4 0  9993
2 39073  51.9821 288.2332 0000877 143.6460 216.4466 12.62267653525139
